{
"type": "FeatureCollection",
"name": "parcheggio_protetto_bike",
"crs": { "type": "name", "properties": { "name": "urn:ogc:def:crs:EPSG::25832" } },
"features": [
{ "type": "Feature", "properties": { "park": "Parcheggio Sanseverino", "via": "via Sanseverino", "fumetto": "Servizio rimessaggio bici Piazzale Sanseverino", "layer": "Servizio di rimessaggio biciclette", "posti": 12, "note": null }, "geometry": { "type": "Point", "coordinates": [ 663553.746880873455666, 5103551.5952287632972 ] } },
{ "type": "Feature", "properties": { "park": "Osp. Santa Chiara", "via": "via Gocciadoro", "fumetto": "Servizio di rimessaggio bici Osp. Santa Chiara", "layer": "Servizio di rimessaggio biciclette", "posti": 16, "note": null }, "geometry": { "type": "Point", "coordinates": [ 665244.005820453865454, 5102332.852935295552015 ] } },
{ "type": "Feature", "properties": { "park": "Via Bartali", "via": "via Bartali", "fumetto": "Servizio rimessaggio bici via Bartali", "layer": "Servizio di rimessaggio biciclette", "posti": 16, "note": null }, "geometry": { "type": "Point", "coordinates": [ 664408.494106520549394, 5100721.015697318129241 ] } },
{ "type": "Feature", "properties": { "park": "Ex lavatoio pubblico", "via": "via della Saluga civ. 4", "fumetto": "Servizio rimessaggio bici Ex lavatoio pubblico", "layer": "Servizio di rimessaggio biciclette", "posti": 38, "note": null }, "geometry": { "type": "Point", "coordinates": [ 664611.347083280212246, 5104037.903124921023846 ] } },
{ "type": "Feature", "properties": { "park": "Parcheggio Monte Baldo", "via": "via Monte Baldo", "fumetto": "Servizio rimessaggio bici Parcheggio Monte Baldo", "layer": "Servizio di rimessaggio biciclette", "posti": 48, "note": null }, "geometry": { "type": "Point", "coordinates": [ 663435.195703617762774, 5102601.152078887447715 ] } },
{ "type": "Feature", "properties": { "park": "Via Unterveger", "via": "via Unterveger", "fumetto": "Servizio rimessaggio bici via Unterveger", "layer": "Servizio di rimessaggio biciclette", "posti": 16, "note": null }, "geometry": { "type": "Point", "coordinates": [ 663392.217550311470404, 5106222.998373216949403 ] } },
{ "type": "Feature", "properties": { "park": "Stazione di Trento", "via": "via Dogana civ. 14", "fumetto": "Servizio rimessaggio bici Stazione di Trento", "layer": "Servizio di rimessaggio biciclette", "posti": 200, "note": " chiuso temporaneamenteo dal 2024" }, "geometry": { "type": "Point", "coordinates": [ 663940.707379307830706, 5104342.136551724746823 ] } },
{ "type": "Feature", "properties": { "park": "Piedicastello", "via": "via Verruca", "fumetto": "Servizio rimessaggio bici Piedicastello", "layer": "Servizio di rimessaggio biciclette", "posti": 26, "note": null }, "geometry": { "type": "Point", "coordinates": [ 663454.116794560686685, 5104019.042824324220419 ] } },
{ "type": "Feature", "properties": { "park": "Stazione di Trento 2", "via": "via Dogana civ. 2", "fumetto": "Servizio rimessaggio bici Stazione 2", "layer": "Servizio di rimessaggio biciclette", "posti": 55, "note": "aperto dal 2024 in sostituzione del ciclobox Stazione di  Trento in via Dogana, 14" }, "geometry": { "type": "Point", "coordinates": [ 663940.843022144399583, 5104385.421868787147105 ] } },
{ "type": "Feature", "properties": { "park": "Area Ex Zuffo", "via": "piazzale Ex Zuffo", "fumetto": "Servizio rimessaggio bici Piazzale Area ex Zuffo", "layer": "Servizio di rimessaggio biciclette", "posti": 200, "note": null }, "geometry": { "type": "Point", "coordinates": [ 663181.988872228888795, 5104570.415620984509587 ] } },
{ "type": "Feature", "properties": { "park": "Via Canestrini", "via": "via Canestrini", "fumetto": "Servizio rimessaggio bici via Canestrini", "layer": "Servizio di rimessaggio biciclette", "posti": 24, "note": "riaperto il 16/06/2026 dopo lavori Hub intermodale " }, "geometry": { "type": "Point", "coordinates": [ 663613.54390000004787, 5103833.178399999625981 ] } }
]
}
